     2.10           NAVIGATION DATA                         RINEX VERSION / TYPE
Spider V4,3,0,4633  DGT                 2016 07 18 10:15    PGM / RUN BY / DATE 
   7.4506D-09  2.2352D-08 -5.9605D-08 -1.1921D-07           ION ALPHA           
   9.0112D+04  1.1469D+05 -6.5536D+04 -5.2429D+05           ION BETA            
    9.313225746155D-10 1.776356839400D-15   319488     1906 DELTA-UTC: A0,A1,T,W
    17                                                      LEAP SECONDS        
THIS RINEX FILE IS CREATED FROM RTCM V3.0 DATA              COMMENT             
                                                            END OF HEADER       
21 16 07 18 12 00  0.0-5.286158993840D-04-9.094947017729D-13 0.000000000000D+00
    4.300000000000D+01-6.562500000000D+01 4.506973461105D-09 2.166161358550D+00
   -3.598630428314D-06 2.335737936664D-02 1.082196831703D-05 5.153588747025D+03
    1.296000000000D+05 3.203749656677D-07 3.087773332576D+00-3.743916749954D-07
    9.372894321756D-01 1.534375000000D+02-1.775496493698D+00-7.630317711005D-09
    2.535819887406D-10 1.000000000000D+00 1.906000000000D+03 0.000000000000D+00
    2.000000000000D+00 0.000000000000D+00-1.024454832077D-08 4.300000000000D+01
    1.223400000000D+05 0.000000000000D+00
32 16 07 18 12 00  0.0-5.191238597035D-05-1.080024958355D-11 0.000000000000D+00
    3.600000000000D+01-2.643750000000D+01 4.759126870368D-09 8.604534504828D-03
   -1.417472958565D-06 5.926532903686D-04 7.826834917068D-06 5.153623367310D+03
    1.296000000000D+05-3.725290298462D-08-1.078081550264D+00 1.303851604462D-08
    9.590633395577D-01 2.305937500000D+02-2.282204001197D+00-8.035335063994D-09
   -4.057311986383D-10 1.000000000000D+00 1.906000000000D+03 0.000000000000D+00
    2.000000000000D+00 0.000000000000D+00 4.656612873077D-10 3.600000000000D+01
    1.223400000000D+05 0.000000000000D+00
14 16 07 18 12 00  0.0-2.520717680454D-05-1.932676241267D-12 0.000000000000D+00
    5.500000000000D+01-1.818750000000D+01 4.643764928147D-09-6.281593877599D-01
   -8.195638656616D-07 8.879685541615D-03 8.415430784225D-06 5.154035358429D+03
    1.296000000000D+05-1.005828380585D-07-9.955920777663D-01 1.434236764908D-07
    9.633847498246D-01 2.231875000000D+02-1.959112633202D+00-8.085693892212D-09
   -4.068026471238D-10 1.000000000000D+00 1.906000000000D+03 0.000000000000D+00
    2.000000000000D+00 0.000000000000D+00-9.313225746155D-09 5.500000000000D+01
    1.223400000000D+05 0.000000000000D+00
31 16 07 18 12 00  0.0 2.582464367151D-04-2.046363078989D-12 0.000000000000D+00
    9.700000000000D+01 9.362500000000D+01 4.108028139882D-09 3.001640392382D+00
    4.978850483894D-06 8.169333450496D-03 1.054257154465D-05 5.153791959763D+03
    1.296000000000D+05-1.396983861923D-07 7.792983626191D-03 1.080334186554D-07
    9.710204156293D-01 1.815937500000D+02-3.939017451888D-01-7.603531138045D-09
    2.107230709369D-11 1.000000000000D+00 1.906000000000D+03 0.000000000000D+00
    2.000000000000D+00 0.000000000000D+00-1.350417733192D-08 9.700000000000D+01
    1.223400000000D+05 0.000000000000D+00
29 16 07 18 12 00  0.0 6.552767008543D-04-5.684341886081D-13 0.000000000000D+00
    1.050000000000D+02-1.140937500000D+02 4.118385632523D-09 1.795094679093D+00
   -5.930662155151D-06 7.231021299958D-04 4.786998033524D-06 5.153782287598D+03
    1.296000000000D+05-3.911554813385D-08 2.125243302880D+00-2.980232238770D-08
    9.778718871235D-01 2.972187500000D+02 1.863879932938D-02-7.960688996889D-09
   -4.164459055378D-10 1.000000000000D+00 1.906000000000D+03 0.000000000000D+00
    2.000000000000D+00 0.000000000000D+00-1.024454832077D-08 1.050000000000D+02
    1.223400000000D+05 0.000000000000D+00
25 16 07 18 12 00  0.0-2.106293104589D-04-6.934897101019D-12 0.000000000000D+00
    2.300000000000D+01 8.200000000000D+01 4.433041933538D-09 2.024107709148D+00
    4.095956683159D-06 5.617628223263D-03 2.309679985046D-06 5.153723918915D+03
    1.296000000000D+05-1.601874828339D-07 1.023672480159D+00-2.793967723846D-08
    9.783274485909D-01 3.435625000000D+02 7.957496137312D-01-8.174626309199D-09
    1.828647649971D-10 1.000000000000D+00 1.906000000000D+03 0.000000000000D+00
    2.000000000000D+00 0.000000000000D+00 5.587935447693D-09 2.300000000000D+01
    1.223400000000D+05 0.000000000000D+00
